[{"OBJECT_NAME":"ONEWEB-0354","OBJECT_ID":"2021-083AH","EPOCH":"2026-03-15T01:02:05.970624","MEAN_MOTION":13.20770154,"ECCENTRICITY":0.00017279,"INCLINATION":87.9165,"RA_OF_ASC_NODE":293.2357,"ARG_OF_PERICENTER":76.268,"MEAN_ANOMALY":283.8646,"EPHEMERIS_TYPE":0,"CLASSIFICATION_TYPE":"U","NORAD_CAT_ID":49217,"ELEMENT_SET_NO":999,"REV_AT_EPOCH":22438,"BSTAR":0.00029046009,"MEAN_MOTION_DOT":1.31e-6,"MEAN_MOTION_DDOT":0},{"OBJECT_NAME":"ONEWEB-0355","OBJECT_ID":"2021-083AJ","EPOCH":"2026-03-15T04:52:33.809376","MEAN_MOTION":13.134692,"ECCENTRICITY":0.00019846,"INCLINATION":87.9021,"RA_OF_ASC_NODE":338.9445,"ARG_OF_PERICENTER":77.4905,"MEAN_ANOMALY":282.6446,"EPHEMERIS_TYPE":0,"CLASSIFICATION_TYPE":"U","NORAD_CAT_ID":49218,"ELEMENT_SET_NO":999,"REV_AT_EPOCH":21856,"BSTAR":5.6070639e-5,"MEAN_MOTION_DOT":3.3e-7,"MEAN_MOTION_DDOT":0},{"OBJECT_NAME":"ONEWEB-0357","OBJECT_ID":"2021-083AK","EPOCH":"2026-03-15T00:57:33.312096","MEAN_MOTION":13.20770521,"ECCENTRICITY":0.00018213,"INCLINATION":87.9164,"RA_OF_ASC_NODE":293.231,"ARG_OF_PERICENTER":88.2353,"MEAN_ANOMALY":271.8989,"EPHEMERIS_TYPE":0,"CLASSIFICATION_TYPE":"U","NORAD_CAT_ID":49219,"ELEMENT_SET_NO":999,"REV_AT_EPOCH":22438,"BSTAR":0.00025624668,"MEAN_MOTION_DOT":1.17e-6,"MEAN_MOTION_DDOT":0},{"OBJECT_NAME":"ONEWEB-0332","OBJECT_ID":"2021-090A","EPOCH":"2026-03-15T03:17:20.981760","MEAN_MOTION":13.14503164,"ECCENTRICITY":0.00017015,"INCLINATION":87.8978,"RA_OF_ASC_NODE":308.4779,"ARG_OF_PERICENTER":89.739,"MEAN_ANOMALY":270.3935,"EPHEMERIS_TYPE":0,"CLASSIFICATION_TYPE":"U","NORAD_CAT_ID":49279,"ELEMENT_SET_NO":999,"REV_AT_EPOCH":21522,"BSTAR":-0.00038689101,"MEAN_MOTION_DOT":-1.31e-6,"MEAN_MOTION_DDOT":0},{"OBJECT_NAME":"ONEWEB-0347","OBJECT_ID":"2021-090B","EPOCH":"2026-03-15T00:43:55.606080","MEAN_MOTION":13.2077106,"ECCENTRICITY":0.00015186,"INCLINATION":87.9166,"RA_OF_ASC_NODE":293.2414,"ARG_OF_PERICENTER":94.5906,"MEAN_ANOMALY":265.54,"EPHEMERIS_TYPE":0,"CLASSIFICATION_TYPE":"U","NORAD_CAT_ID":49280,"ELEMENT_SET_NO":999,"REV_AT_EPOCH":21861,"BSTAR":0.00027223016,"MEAN_MOTION_DOT":1.24e-6,"MEAN_MOTION_DDOT":0},{"OBJECT_NAME":"ONEWEB-0349","OBJECT_ID":"2021-090C","EPOCH":"2026-03-15T03:18:28.279584","MEAN_MOTION":13.20770862,"ECCENTRICITY":0.00017022,"INCLINATION":87.9162,"RA_OF_ASC_NODE":293.2202,"ARG_OF_PERICENTER":85.8039,"MEAN_ANOMALY":274.3289,"EPHEMERIS_TYPE":0,"CLASSIFICATION_TYPE":"U","NORAD_CAT_ID":49281,"ELEMENT_SET_NO":999,"REV_AT_EPOCH":21741,"BSTAR":1.2950898e-5,"MEAN_MOTION_DOT":1.8e-7,"MEAN_MOTION_DDOT":0},{"OBJECT_NAME":"ONEWEB-0353","OBJECT_ID":"2021-090D","EPOCH":"2026-03-15T04:55:32.355840","MEAN_MOTION":13.14503241,"ECCENTRICITY":0.00016257,"INCLINATION":87.8982,"RA_OF_ASC_NODE":308.4586,"ARG_OF_PERICENTER":91.8125,"MEAN_ANOMALY":268.3191,"EPHEMERIS_TYPE":0,"CLASSIFICATION_TYPE":"U","NORAD_CAT_ID":49282,"ELEMENT_SET_NO":999,"REV_AT_EPOCH":21523,"BSTAR":-0.00032413754,"MEAN_MOTION_DOT":-1.07e-6,"MEAN_MOTION_DDOT":0},{"OBJECT_NAME":"ONEWEB-0356","OBJECT_ID":"2021-090E","EPOCH":"2026-03-15T03:16:11.390880","MEAN_MOTION":13.20770236,"ECCENTRICITY":8.165e-5,"INCLINATION":87.9164,"RA_OF_ASC_NODE":293.214,"ARG_OF_PERICENTER":94.1662,"MEAN_ANOMALY":265.9565,"EPHEMERIS_TYPE":0,"CLASSIFICATION_TYPE":"U","NORAD_CAT_ID":49283,"ELEMENT_SET_NO":999,"REV_AT_EPOCH":21741,"BSTAR":-3.2500997e-5,"MEAN_MOTION_DOT":0,"MEAN_MOTION_DDOT":0},{"OBJECT_NAME":"ONEWEB-0358","OBJECT_ID":"2021-090F","EPOCH":"2026-03-15T03:59:23.057376","MEAN_MOTION":13.20770539,"ECCENTRICITY":0.00015734,"INCLINATION":87.9165,"RA_OF_ASC_NODE":293.2108,"ARG_OF_PERICENTER":82.3202,"MEAN_ANOMALY":277.811,"EPHEMERIS_TYPE":0,"CLASSIFICATION_TYPE":"U","NORAD_CAT_ID":49284,"ELEMENT_SET_NO":999,"REV_AT_EPOCH":21814,"BSTAR":0.00030290201,"MEAN_MOTION_DOT":1.36e-6,"MEAN_MOTION_DDOT":0},{"OBJECT_NAME":"ONEWEB-0359","OBJECT_ID":"2021-090G","EPOCH":"2026-03-15T03:54:50.355648","MEAN_MOTION":13.2077114,"ECCENTRICITY":0.00016892,"INCLINATION":87.9166,"RA_OF_ASC_NODE":293.2086,"ARG_OF_PERICENTER":76.483,"MEAN_ANOMALY":283.6491,"EPHEMERIS_TYPE":0,"CLASSIFICATION_TYPE":"U","NORAD_CAT_ID":49285,"ELEMENT_SET_NO":999,"REV_AT_EPOCH":21812,"BSTAR":0.00032550051,"MEAN_MOTION_DOT":1.45e-6,"MEAN_MOTION_DDOT":0},{"OBJECT_NAME":"ONEWEB-0360","OBJECT_ID":"2021-090H","EPOCH":"2026-03-15T03:41:11.472000","MEAN_MOTION":13.20770049,"ECCENTRICITY":0.00017328,"INCLINATION":87.9164,"RA_OF_ASC_NODE":293.2168,"ARG_OF_PERICENTER":82.12,"MEAN_ANOMALY":278.013,"EPHEMERIS_TYPE":0,"CLASSIFICATION_TYPE":"U","NORAD_CAT_ID":49286,"ELEMENT_SET_NO":999,"REV_AT_EPOCH":21743,"BSTAR":6.8908993e-5,"MEAN_MOTION_DOT":4.1e-7,"MEAN_MOTION_DDOT":0},{"OBJECT_NAME":"ONEWEB-0361","OBJECT_ID":"2021-090J","EPOCH":"2026-03-15T03:13:55.003296","MEAN_MOTION":13.20770364,"ECCENTRICITY":0.00014657,"INCLINATION":87.9165,"RA_OF_ASC_NODE":293.2182,"ARG_OF_PERICENTER":86.0232,"MEAN_ANOMALY":274.1069,"EPHEMERIS_TYPE":0,"CLASSIFICATION_TYPE":"U","NORAD_CAT_ID":49287,"ELEMENT_SET_NO":999,"REV_AT_EPOCH":21788,"BSTAR":0.00014532521,"MEAN_MOTION_DOT":7.2e-7,"MEAN_MOTION_DDOT":0},{"OBJECT_NAME":"ONEWEB-0362","OBJECT_ID":"2021-090K","EPOCH":"2026-03-15T05:45:55.210176","MEAN_MOTION":13.19725088,"ECCENTRICITY":0.00019908,"INCLINATION":87.9224,"RA_OF_ASC_NODE":323.7011,"ARG_OF_PERICENTER":80.52,"MEAN_ANOMALY":279.6158,"EPHEMERIS_TYPE":0,"CLASSIFICATION_TYPE":"U","NORAD_CAT_ID":49288,"ELEMENT_SET_NO":999,"REV_AT_EPOCH":21452,"BSTAR":7.9995053e-5,"MEAN_MOTION_DOT":4.5e-7,"MEAN_MOTION_DDOT":0},{"OBJECT_NAME":"ONEWEB-0363","OBJECT_ID":"2021-090L","EPOCH":"2026-03-15T07:14:50.113824","MEAN_MOTION":13.20771403,"ECCENTRICITY":0.00013264,"INCLINATION":87.9164,"RA_OF_ASC_NODE":293.1859,"ARG_OF_PERICENTER":82.9379,"MEAN_ANOMALY":277.1905,"EPHEMERIS_TYPE":0,"CLASSIFICATION_TYPE":"U","NORAD_CAT_ID":49289,"ELEMENT_SET_NO":999,"REV_AT_EPOCH":21791,"BSTAR":0.00015019687,"MEAN_MOTION_DOT":7.4e-7,"MEAN_MOTION_DDOT":0},{"OBJECT_NAME":"ONEWEB-0364","OBJECT_ID":"2021-090M","EPOCH":"2026-03-15T06:20:14.050464","MEAN_MOTION":13.20807337,"ECCENTRICITY":0.00016196,"INCLINATION":87.9153,"RA_OF_ASC_NODE":293.2069,"ARG_OF_PERICENTER":78.9066,"MEAN_ANOMALY":281.2249,"EPHEMERIS_TYPE":0,"CLASSIFICATION_TYPE":"U","NORAD_CAT_ID":49290,"ELEMENT_SET_NO":999,"REV_AT_EPOCH":21904,"BSTAR":0.011926537,"MEAN_MOTION_DOT":4.867e-5,"MEAN_MOTION_DDOT":0},{"OBJECT_NAME":"ONEWEB-0365","OBJECT_ID":"2021-090N","EPOCH":"2026-03-15T05:59:34.000512","MEAN_MOTION":13.19725122,"ECCENTRICITY":0.00018303,"INCLINATION":87.9237,"RA_OF_ASC_NODE":323.679,"ARG_OF_PERICENTER":83.7157,"MEAN_ANOMALY":276.4185,"EPHEMERIS_TYPE":0,"CLASSIFICATION_TYPE":"U","NORAD_CAT_ID":49291,"ELEMENT_SET_NO":999,"REV_AT_EPOCH":21403,"BSTAR":0.00012993517,"MEAN_MOTION_DOT":6.5e-7,"MEAN_MOTION_DDOT":0},{"OBJECT_NAME":"ONEWEB-0366","OBJECT_ID":"2021-090P","EPOCH":"2026-03-15T04:50:58.614720","MEAN_MOTION":13.14502931,"ECCENTRICITY":0.00016538,"INCLINATION":87.897,"RA_OF_ASC_NODE":308.4684,"ARG_OF_PERICENTER":80.9942,"MEAN_ANOMALY":279.1375,"EPHEMERIS_TYPE":0,"CLASSIFICATION_TYPE":"U","NORAD_CAT_ID":49292,"ELEMENT_SET_NO":999,"REV_AT_EPOCH":21521,"BSTAR":-0.0002161819,"MEAN_MOTION_DOT":-6.7e-7,"MEAN_MOTION_DDOT":0}]
