ONEWEB-0354             
1 49217U 21083AH  26074.04312466  .00000131  00000+0  29046-3 0  9990
2 49217  87.9165 293.2357 0001727  76.2680 283.8646 13.20770154224384
ONEWEB-0355             
1 49218U 21083AJ  26074.20316909  .00000033  00000+0  56071-4 0  9995
2 49218  87.9021 338.9445 0001984  77.4905 282.6446 13.13469200218566
ONEWEB-0357             
1 49219U 21083AK  26074.03996889  .00000117  00000+0  25625-3 0  9991
2 49219  87.9164 293.2310 0001821  88.2353 271.8989 13.20770521224384
ONEWEB-0332             
1 49279U 21090A   26074.13704840 -.00000131  00000+0 -38689-3 0  9992
2 49279  87.8978 308.4779 0001701  89.7390 270.3935 13.14503164215222
ONEWEB-0347             
1 49280U 21090B   26074.03050470  .00000124  00000+0  27223-3 0  9998
2 49280  87.9166 293.2414 0001518  94.5906 265.5400 13.20771060218612
ONEWEB-0349             
1 49281U 21090C   26074.13782731  .00000018  00000+0  12951-4 0  9997
2 49281  87.9162 293.2202 0001702  85.8039 274.3289 13.20770862217418
ONEWEB-0353             
1 49282U 21090D   26074.20523560 -.00000107  00000+0 -32414-3 0  9995
2 49282  87.8982 308.4586 0001625  91.8125 268.3191 13.14503241215230
ONEWEB-0356             
1 49283U 21090E   26074.13624295  .00000000  00000+0 -32501-4 0  9994
2 49283  87.9164 293.2140 0000816  94.1662 265.9565 13.20770236217411
ONEWEB-0358             
1 49284U 21090F   26074.16623909  .00000136  00000+0  30290-3 0  9990
2 49284  87.9165 293.2108 0001573  82.3202 277.8110 13.20770539218142
ONEWEB-0359             
1 49285U 21090G   26074.16308282  .00000145  00000+0  32550-3 0  9996
2 49285  87.9166 293.2086 0001689  76.4830 283.6491 13.20771140218122
ONEWEB-0360             
1 49286U 21090H   26074.15360500  .00000041  00000+0  68909-4 0  9990
2 49286  87.9164 293.2168 0001732  82.1200 278.0130 13.20770049217434
ONEWEB-0361             
1 49287U 21090J   26074.13466439  .00000072  00000+0  14533-3 0  9994
2 49287  87.9165 293.2182 0001465  86.0232 274.1069 13.20770364217880
ONEWEB-0362             
1 49288U 21090K   26074.24022234  .00000045  00000+0  79995-4 0  9992
2 49288  87.9224 323.7011 0001990  80.5200 279.6158 13.19725088214522
ONEWEB-0363             
1 49289U 21090L   26074.30196891  .00000074  00000+0  15020-3 0  9991
2 49289  87.9164 293.1859 0001326  82.9379 277.1905 13.20771403217915
ONEWEB-0364             
1 49290U 21090M   26074.26405151  .00004867  00000+0  11927-1 0  9994
2 49290  87.9153 293.2069 0001619  78.9066 281.2249 13.20807337219041
ONEWEB-0365             
1 49291U 21090N   26074.24969908  .00000065  00000+0  12994-3 0  9991
2 49291  87.9237 323.6790 0001830  83.7157 276.4185 13.19725122214032
ONEWEB-0366             
1 49292U 21090P   26074.20206730 -.00000067  00000+0 -21618-3 0  9992
2 49292  87.8970 308.4684 0001653  80.9942 279.1375 13.14502931215211
